STARLINK-37568          
1 69492U 26131Q   26168.83335648 -.01062291  35745-3 -23903-2 0  9995
2 69492  97.2814 189.0775 0001058  80.0615 181.8648 15.97711152  2203
STARLINK-37855          
1 69493U 26131R   26168.83335648 -.01068781  36203-3 -23874-2 0  9993
2 69493  97.2814 189.0786 0001051  80.1605 184.0670 15.97844981  2172
STARLINK-37854          
1 69494U 26131S   26168.83335648 -.01069723  36313-3 -23727-2 0  9990
2 69494  97.2812 189.0794 0001007  80.2836 186.2001 15.97972979  2179
STARLINK-37789          
1 69495U 26131T   26168.83335648 -.01071991  36502-3 -23626-2 0  9999
2 69495  97.2811 189.0801 0001097  78.8272 189.6381 15.98089273  2191
STARLINK-37839          
1 69496U 26131U   26168.83335648 -.01074381  36734-3 -23415-2 0  9999
2 69496  97.2810 189.0817 0001092  77.5969 194.4436 15.98292119  2170
STARLINK-37798          
1 69497U 26131V   26168.83335648 -.01073307  36621-3 -23538-2 0  9998
2 69497  97.2812 189.0808 0001085  79.9824 190.0040 15.98178905  2170
STARLINK-37853          
1 69498U 26131W   26168.83335648 -.01067437  36443-3 -22793-2 0  9990
2 69498  97.2810 189.0845 0001071  78.1581 200.0017 15.98659825  2177
STARLINK-37849          
1 69499U 26131X   26168.83335648 -.01067223  36395-3 -22896-2 0  9994
2 69499  97.2809 189.0837 0001102  79.5283 197.2866 15.98575084  2191
STARLINK-37835          
1 69500U 26131Y   26168.41668981 -.01007312  32944-3 -20809-2 0  9991
2 69500  97.2810 188.6283 0000949  89.1608 307.9478 15.99244613  1316
STARLINK-37843          
1 69501U 26131Z   26168.83335648 -.01070204  36546-3 -23079-2 0  9993
2 69501  97.2810 189.0833 0000986  79.4775 195.8087 15.98482208  2179
2026-132A               
1 69502U 26132A   26169.75714051  .00000470  00000+0  43573-4 0  9996
2 69502  97.6904 233.4125 0012621 264.7950  95.1832 14.99046210  1010
2026-132B               
1 69503U 26132B   26169.89022793  .00000277  00000+0  27678-4 0  9990
2 69503  97.6934 233.5475 0012534 266.5323  93.4466 14.99135801  1031
BRO-22                  
1 69504U 26132C   26169.88738884  .00000432  00000+0  39717-4 0  9995
2 69504  97.6872 233.5437 0014007 278.3083  81.6552 14.99759452  1031
2026-132D               
1 69505U 26132D   26168.74695951  .00001338  00000+0  10621-3 0  9995
2 69505  97.6863 232.4219 0013368 289.5250  70.4531 15.02139837   864
2026-132E               
1 69506U 26132E   26169.74898406  .00001655  00000+0  13459-3 0  9991
2 69506  97.6906 233.4240 0012661 301.4191  58.5795 15.00883696  1004
2026-132F               
1 69507U 26132F   26168.61414985  .00000020  00000+0  62322-5 0  9993
2 69507  97.6873 232.2826 0010583 301.3787  58.6401 15.01610542   830
STARLINK-37536          
1 69508U 26133A   26169.91668981 -.01752081  96056-3 -27743-2 0  9995
2 69508  53.1589 313.9752 0000628  46.5142 289.7253 16.03255072  2244
STARLINK-37341          
1 69509U 26133B   26169.91668981 -.01738957  95013-3 -27102-2 0  9993
2 69509  53.1588 313.9680 0000740  48.1888 291.5174 16.03518540  2249
STARLINK-36536          
1 69510U 26133C   26169.91668981 -.01725561  93999-3 -26392-2 0  9993
2 69510  53.1588 313.9605 0000719  47.0456 296.3627 16.03830527  2184
STARLINK-37420          
1 69511U 26133D   26169.91668981 -.01706996  92904-3 -25011-2 0  9997
2 69511  53.1584 313.9440 0000629  51.9315 299.2288 16.04538356  2132
STARLINK-37511          
1 69512U 26133E   26169.91668981 -.01716430  93480-3 -25678-2 0  9991
2 69512  53.1587 313.9523 0000621  52.0883 295.2535 16.04196128  2130
STARLINK-37552          
1 69513U 26133F   26169.91668981 -.01696084  92129-3 -24403-2 0  9998
2 69513  53.1585 313.9370 0000633  45.0651 309.7057 16.04835686  2136
STARLINK-37607          
1 69514U 26133G   26169.91668981 -.01683738  91108-3 -23922-2 0  9992
2 69514  53.1587 313.9298 0000686  51.7788 306.1855 16.05040424  2148
STARLINK-37232          
1 69515U 26133H   26169.91668981 -.01670761  90128-3 -23308-2 0  9994
2 69515  53.1585 313.9227 0000598  52.6357 308.9385 16.05336861  2144
STARLINK-37323          
1 69516U 26133J   26169.91668981 -.01653764  88731-3 -22672-2 0  9999
2 69516  53.1585 313.9149 0000678  50.2780 314.8487 16.05617795  2148
STARLINK-37357          
1 69517U 26133K   26169.91668981 -.01643440  87889-3 -22289-2 0  9997
2 69517  53.1584 313.9085 0000730  47.2222 320.9390 16.05791275  2140
STARLINK-37408          
1 69518U 26133L   26169.91668981 -.01631695  87000-3 -21774-2 0  9990
2 69518  53.1585 313.9013 0000710  48.0427 323.5584 16.06051354  2149
STARLINK-37570          
1 69519U 26133M   26169.91668981 -.01610176  85590-3 -20594-2 0  9993
2 69519  53.1586 313.8854 0000657  51.8740 327.3121 16.06729370  2142
STARLINK-37510          
1 69520U 26133N   26169.91668981 -.01616744  85885-3 -21116-2 0  9990
2 69520  53.1580 313.8941 0000771  48.9287 326.4894 16.06394442  2140
