OBJECT_NAME,OBJECT_ID,EPOCH,MEAN_MOTION,ECCENTRICITY,INCLINATION,RA_OF_ASC_NODE,ARG_OF_PERICENTER,MEAN_ANOMALY,EPHEMERIS_TYPE,CLASSIFICATION_TYPE,NORAD_CAT_ID,ELEMENT_SET_NO,REV_AT_EPOCH,BSTAR,MEAN_MOTION_DOT,MEAN_MOTION_DDOT
STARLINK-37568,2026-131Q,2026-06-17T20:00:01.999872,15.97711152,.00010589,97.2814,189.0775,80.0615,181.8648,0,U,69492,999,220,-.2390303E-2,-.1062291E-1,.35745091E-3
STARLINK-37855,2026-131R,2026-06-17T20:00:01.999872,15.97844981,.0001051,97.2814,189.0786,80.1605,184.0670,0,U,69493,999,217,-.23873993E-2,-.1068781E-1,.36203359E-3
STARLINK-37854,2026-131S,2026-06-17T20:00:01.999872,15.97972979,.00010076,97.2812,189.0794,80.2836,186.2001,0,U,69494,999,217,-.23727484E-2,-.1069723E-1,.36313083E-3
STARLINK-37789,2026-131T,2026-06-17T20:00:01.999872,15.98089273,.00010974,97.2811,189.0801,78.8272,189.6381,0,U,69495,999,219,-.23625931E-2,-.1071991E-1,.36502099E-3
STARLINK-37839,2026-131U,2026-06-17T20:00:01.999872,15.98292119,.00010927,97.2810,189.0817,77.5969,194.4436,0,U,69496,999,217,-.23415098E-2,-.1074381E-1,.36734345E-3
STARLINK-37798,2026-131V,2026-06-17T20:00:01.999872,15.98178905,.00010853,97.2812,189.0808,79.9824,190.0040,0,U,69497,999,217,-.23538414E-2,-.1073307E-1,.36620966E-3
STARLINK-37853,2026-131W,2026-06-17T20:00:01.999872,15.98659825,.00010712,97.2810,189.0845,78.1581,200.0017,0,U,69498,999,217,-.22792962E-2,-.1067437E-1,.36442655E-3
STARLINK-37849,2026-131X,2026-06-17T20:00:01.999872,15.98575084,.00011021,97.2809,189.0837,79.5283,197.2866,0,U,69499,999,219,-.2289581E-2,-.1067223E-1,.36395159E-3
STARLINK-37835,2026-131Y,2026-06-17T10:00:01.999584,15.99244613,.00009496,97.2810,188.6283,89.1608,307.9478,0,U,69500,999,131,-.20808957E-2,-.1007312E-1,.32943535E-3
STARLINK-37843,2026-131Z,2026-06-17T20:00:01.999872,15.98482208,.00009862,97.2810,189.0833,79.4775,195.8087,0,U,69501,999,217,-.23079265E-2,-.1070204E-1,.36546324E-3
2026-132A,2026-132A,2026-06-18T18:10:16.940064,14.99046210,.00126216,97.6904,233.4125,264.7950,95.1832,0,U,69502,999,101,.43572512E-4,.47E-5,0
2026-132B,2026-132B,2026-06-18T21:21:55.693152,14.99135801,.00125349,97.6934,233.5475,266.5323,93.4466,0,U,69503,999,103,.27678196E-4,.277E-5,0
BRO-22,2026-132C,2026-06-18T21:17:50.395776,14.99759452,.00140077,97.6872,233.5437,278.3083,81.6552,0,U,69504,999,103,.39716842E-4,.432E-5,0
2026-132D,2026-132D,2026-06-17T17:55:37.301664,15.02139837,.00133686,97.6863,232.4219,289.5250,70.4531,0,U,69505,999,86,.10621323E-3,.1338E-4,0
2026-132E,2026-132E,2026-06-18T17:58:32.222784,15.00883696,.00126613,97.6906,233.4240,301.4191,58.5795,0,U,69506,999,100,.1345861E-3,.1655E-4,0
2026-132F,2026-132F,2026-06-17T14:44:22.547040,15.01610542,.00105834,97.6873,232.2826,301.3787,58.6401,0,U,69507,999,83,.6232203E-5,.2E-6,0
STARLINK-37536,2026-133A,2026-06-18T22:00:01.999584,16.03255072,.00006288,53.1589,313.9752,46.5142,289.7253,0,U,69508,999,224,-.27743477E-2,-.1752081E-1,.96055576E-3
STARLINK-37341,2026-133B,2026-06-18T22:00:01.999584,16.03518540,.000074,53.1588,313.9680,48.1888,291.5174,0,U,69509,999,224,-.27102295E-2,-.1738957E-1,.95012677E-3
STARLINK-36536,2026-133C,2026-06-18T22:00:01.999584,16.03830527,.00007199,53.1588,313.9605,47.0456,296.3627,0,U,69510,999,218,-.26391862E-2,-.1725561E-1,.93999109E-3
STARLINK-37420,2026-133D,2026-06-18T22:00:01.999584,16.04538356,.00006291,53.1584,313.9440,51.9315,299.2288,0,U,69511,999,213,-.25011017E-2,-.1706996E-1,.92904093E-3
STARLINK-37511,2026-133E,2026-06-18T22:00:01.999584,16.04196128,.00006215,53.1587,313.9523,52.0883,295.2535,0,U,69512,999,213,-.25678153E-2,-.171643E-1,.93479878E-3
STARLINK-37552,2026-133F,2026-06-18T22:00:01.999584,16.04835686,.00006336,53.1585,313.9370,45.0651,309.7057,0,U,69513,999,213,-.2440334E-2,-.1696084E-1,.92128915E-3
STARLINK-37607,2026-133G,2026-06-18T22:00:01.999584,16.05040424,.00006866,53.1587,313.9298,51.7788,306.1855,0,U,69514,999,214,-.23922188E-2,-.1683738E-1,.91108206E-3
STARLINK-37232,2026-133H,2026-06-18T22:00:01.999584,16.05336861,.00005982,53.1585,313.9227,52.6357,308.9385,0,U,69515,999,214,-.23308168E-2,-.1670761E-1,.90127589E-3
STARLINK-37323,2026-133J,2026-06-18T22:00:01.999584,16.05617795,.00006788,53.1585,313.9149,50.2780,314.8487,0,U,69516,999,214,-.22672324E-2,-.1653764E-1,.88730805E-3
STARLINK-37357,2026-133K,2026-06-18T22:00:01.999584,16.05791275,.00007309,53.1584,313.9085,47.2222,320.9390,0,U,69517,999,214,-.22288762E-2,-.164344E-1,.87888624E-3
STARLINK-37408,2026-133L,2026-06-18T22:00:01.999584,16.06051354,.00007103,53.1585,313.9013,48.0427,323.5584,0,U,69518,999,214,-.21773863E-2,-.1631695E-1,.87000042E-3
STARLINK-37570,2026-133M,2026-06-18T22:00:01.999584,16.06729370,.00006578,53.1586,313.8854,51.8740,327.3121,0,U,69519,999,214,-.20593944E-2,-.1610176E-1,.85589527E-3
STARLINK-37510,2026-133N,2026-06-18T22:00:01.999584,16.06394442,.00007718,53.1580,313.8941,48.9287,326.4894,0,U,69520,999,214,-.21116151E-2,-.1616744E-1,.85884685E-3
